IRIDIUM 119             
1 42959U 17061E   24030.50864677  .00000079  00000+0  20968-4 0  9990
2 42959  86.3962  28.2556 0002205  84.2645 275.8802 14.34218477330303
IRIDIUM 107             
1 42960U 17061F   24030.45789396  .00000396  00000+0  13429-3 0  9995
2 42960  86.3961  28.2929 0001875  87.8857 272.2553 14.34217480330301
IRIDIUM 132             
1 42961U 17061G   24030.53401210 -.00000038  00000+0 -20665-4 0  9997
2 42961  86.3956  28.2470 0001764  88.7479 271.3919 14.34217200330311
IRIDIUM 136             
1 42962U 17061H   24030.49595828  .00000011  00000+0 -31013-5 0  9992
2 42962  86.3957  28.2657 0002187  83.3533 276.7912 14.34218225330323
IRIDIUM 139             
1 42963U 17061J   24030.50229602  .00000409  00000+0  13897-3 0  9997
2 42963  86.3969  28.3098 0002134  82.7825 277.3613 14.34216399330332
IRIDIUM 125             
1 42964U 17061K   24030.48960601  .00000112  00000+0  32970-4 0  9991
2 42964  86.3963  28.3612 0002053  77.1871 282.9554 14.34216030330347
IRIDIUM 135             
1 43070U 17083A   24030.81258192  .00000503  00000+0  17258-3 0  9991
2 43070  86.3999 324.9418 0002144  93.2061 266.9380 14.34217060319682
IRIDIUM 138             
1 43071U 17083B   24030.34956892  .00000485  00000+0  16628-3 0  9991
2 43071  86.3991 324.8697 0002118  76.5039 283.6393 14.34221247319607
